{"type": "FeatureCollection", "features": [ {"type": "Feature", "properties": {"norad_id": 42969, "name": "SENTINEL-5P", "group": "resource", "lat": -10.689048118557439, "lon": 106.51054757461934, "alt_km": 831.3520137658861, "timestamp": "2025-12-15T14:57:57.497624+00:00", "meta": {"OBJECT_NAME": "SENTINEL-5P", "OBJECT_ID": "2017-064A", "EPOCH": "2025-12-14T19:27:43.916544", "MEAN_MOTION": 14.19518145, "ECCENTRICITY": 9.841e-05, "INCLINATION": 98.7785, "RA_OF_ASC_NODE": 287.3766, "ARG_OF_PERICENTER": 88.6901, "MEAN_ANOMALY": 271.4387, "EPHEMERIS_TYPE": 0, "CLASSIFICATION_TYPE": "U", "NORAD_CAT_ID": 42969, "ELEMENT_SET_NO": 999, "REV_AT_EPOCH": 42340, "BSTAR": 7.0604463e-05, "MEAN_MOTION_DOT": 1.05e-06, "MEAN_MOTION_DDOT": 0}, "tle": {"line1": "1 42969U 17064A   25348.81092496  .00000105  00000+0  70604-4 0  9995", "line2": "2 42969  98.7785 287.3766 0000984  88.6901 271.4387 14.19518145423402"}}, "geometry": {"type": "Point", "coordinates": [106.51054757461934, -10.689048118557439]}}, {"type": "Feature", "properties": {"norad_id": 42987, "name": "SKYSAT-C11", "group": "resource", "lat": -10.993549880262627, "lon": -54.263265039632685, "alt_km": 428.2489736121479, "timestamp": "2025-12-15T14:57:57.497647+00:00", "meta": {"OBJECT_NAME": "SKYSAT-C11", "OBJECT_ID": "2017-068A", "EPOCH": "2025-12-14T21:04:23.365344", "MEAN_MOTION": 15.47548215, "ECCENTRICITY": 0.00011058, "INCLINATION": 97.4136, "RA_OF_ASC_NODE": 126.4223, "ARG_OF_PERICENTER": 105.2284, "MEAN_ANOMALY": 254.9089, "EPHEMERIS_TYPE": 0, "CLASSIFICATION_TYPE": "U", "NORAD_CAT_ID": 42987, "ELEMENT_SET_NO": 999, "REV_AT_EPOCH": 45464, "BSTAR": 0.00030007985, "MEAN_MOTION_DOT": 0.00015355, "MEAN_MOTION_DDOT": 0}, "tle": {"line1": "1 42987U 17068A   25348.87804821  .00015355  00000+0  30008-3 0  9994", "line2": "2 42987  97.4136 126.4223 0001105 105.2284 254.9089 15.47548215454643"}}, "geometry": {"type": "Point", "coordinates": [-54.263265039632685, -10.993549880262627]}}, {"type": "Feature", "properties": {"norad_id": 42988, "name": "SKYSAT-C10", "group": "resource", "lat": 67.12335916114901, "lon": -41.51323014230271, "alt_km": 459.40736805038523, "timestamp": "2025-12-15T14:57:57.497663+00:00", "meta": {"OBJECT_NAME": "SKYSAT-C10", "OBJECT_ID": "2017-068B", "EPOCH": "2025-12-14T21:14:18.766752", "MEAN_MOTION": 15.32114627, "ECCENTRICITY": 0.00054127, "INCLINATION": 97.4254, "RA_OF_ASC_NODE": 119.7413, "ARG_OF_PERICENTER": 97.5408, "MEAN_ANOMALY": 262.6449, "EPHEMERIS_TYPE": 0, "CLASSIFICATION_TYPE": "U", "NORAD_CAT_ID": 42988, "ELEMENT_SET_NO": 999, "REV_AT_EPOCH": 45412, "BSTAR": 0.00024968168, "MEAN_MOTION_DOT": 7.666e-05, "MEAN_MOTION_DDOT": 0}, "tle": {"line1": "1 42988U 17068B   25348.88493943  .00007666  00000+0  24968-3 0  9999", "line2": "2 42988  97.4254 119.7413 0005412  97.5408 262.6449 15.32114627454126"}}, "geometry": {"type": "Point", "coordinates": [-41.51323014230271, 67.12335916114901]}}, {"type": "Feature", "properties": {"norad_id": 42989, "name": "SKYSAT-C9", "group": "resource", "lat": 0.34493900047023596, "lon": 119.85455307835738, "alt_km": 459.06818573849796, "timestamp": "2025-12-15T14:57:57.497672+00:00", "meta": {"OBJECT_NAME": "SKYSAT-C9", "OBJECT_ID": "2017-068C", "EPOCH": "2025-12-14T20:12:13.586688", "MEAN_MOTION": 15.3611159, "ECCENTRICITY": 0.00106147, "INCLINATION": 97.4184, "RA_OF_ASC_NODE": 119.1117, "ARG_OF_PERICENTER": 80.8233, "MEAN_ANOMALY": 279.4211, "EPHEMERIS_TYPE": 0, "CLASSIFICATION_TYPE": "U", "NORAD_CAT_ID": 42989, "ELEMENT_SET_NO": 999, "REV_AT_EPOCH": 45440, "BSTAR": 0.00029043949, "MEAN_MOTION_DOT": 0.00010155, "MEAN_MOTION_DDOT": 0}, "tle": {"line1": "1 42989U 17068C   25348.84182392  .00010155  00000+0  29044-3 0  9996", "line2": "2 42989  97.4184 119.1117 0010614  80.8233 279.4211 15.36111590454409"}}, "geometry": {"type": "Point", "coordinates": [119.85455307835738, 0.34493900047023596]}}, {"type": "Feature", "properties": {"norad_id": 42990, "name": "SKYSAT-C8", "group": "resource", "lat": -60.30142619047602, "lon": 132.85822786127625, "alt_km": 473.29004940475716, "timestamp": "2025-12-15T14:57:57.497682+00:00", "meta": {"OBJECT_NAME": "SKYSAT-C8", "OBJECT_ID": "2017-068D", "EPOCH": "2025-12-14T21:59:59.399808", "MEAN_MOTION": 15.32974211, "ECCENTRICITY": 0.00014519, "INCLINATION": 97.4276, "RA_OF_ASC_NODE": 118.9259, "ARG_OF_PERICENTER": 337.6288, "MEAN_ANOMALY": 22.489, "EPHEMERIS_TYPE": 0, "CLASSIFICATION_TYPE": "U", "NORAD_CAT_ID": 42990, "ELEMENT_SET_NO": 999, "REV_AT_EPOCH": 45404, "BSTAR": 0.00026657862, "MEAN_MOTION_DOT": 8.412e-05, "MEAN_MOTION_DDOT": 0}, "tle": {"line1": "1 42990U 17068D   25348.91665972  .00008412  00000+0  26658-3 0  9997", "line2": "2 42990  97.4276 118.9259 0001451 337.6288  22.4890 15.32974211454041"}}, "geometry": {"type": "Point", "coordinates": [132.85822786127625, -60.30142619047602]}}, {"type": "Feature", "properties": {"norad_id": 42991, "name": "SKYSAT-C7", "group": "resource", "lat": 31.35584051637177, "lon": -54.765654710823185, "alt_km": 467.9850507309093, "timestamp": "2025-12-15T14:57:57.497691+00:00", "meta": {"OBJECT_NAME": "SKYSAT-C7", "OBJECT_ID": "2017-068E", "EPOCH": "2025-12-14T21:04:57.373248", "MEAN_MOTION": 15.32377414, "ECCENTRICITY": 0.00075354, "INCLINATION": 97.4281, "RA_OF_ASC_NODE": 119.9269, "ARG_OF_PERICENTER": 50.2103, "MEAN_ANOMALY": 309.9801, "EPHEMERIS_TYPE": 0, "CLASSIFICATION_TYPE": "U", "NORAD_CAT_ID": 42991, "ELEMENT_SET_NO": 999, "REV_AT_EPOCH": 45410, "BSTAR": 0.00025420608, "MEAN_MOTION_DOT": 7.875e-05, "MEAN_MOTION_DDOT": 0}, "tle": {"line1": "1 42991U 17068E   25348.87844182  .00007875  00000+0  25421-3 0  9994", "line2": "2 42991  97.4281 119.9269 0007535  50.2103 309.9801 15.32377414454107"}}, "geometry": {"type": "Point", "coordinates": [-54.765654710823185, 31.35584051637177]}}, {"type": "Feature", "properties": {"norad_id": 42992, "name": "SKYSAT-C6", "group": "resource", "lat": -74.55600926699792, "lon": -87.08430295442376, "alt_km": 482.03103038461813, "timestamp": "2025-12-15T14:57:57.497700+00:00", "meta": {"OBJECT_NAME": "SKYSAT-C6", "OBJECT_ID": "2017-068F", "EPOCH": "2025-12-14T22:10:09.863328", "MEAN_MOTION": 15.31539332, "ECCENTRICITY": 0.00051246, "INCLINATION": 97.4317, "RA_OF_ASC_NODE": 120.4092, "ARG_OF_PERICENTER": 76.3845, "MEAN_ANOMALY": 283.7967, "EPHEMERIS_TYPE": 0, "CLASSIFICATION_TYPE": "U", "NORAD_CAT_ID": 42992, "ELEMENT_SET_NO": 999, "REV_AT_EPOCH": 45409, "BSTAR": 0.00026281287, "MEAN_MOTION_DOT": 7.929e-05, "MEAN_MOTION_DDOT": 0}, "tle": {"line1": "1 42992U 17068F   25348.92372527  .00007929  00000+0  26281-3 0  9995", "line2": "2 42992  97.4317 120.4092 0005124  76.3845 283.7967 15.31539332454091"}}, "geometry": {"type": "Point", "coordinates": [-87.08430295442376, -74.55600926699792]}}, {"type": "Feature", "properties": {"norad_id": 43111, "name": "CARTOSAT-2F", "group": "resource", "lat": -55.402200990890904, "lon": -143.6933366555558, "alt_km": 515.1324879800086, "timestamp": "2025-12-15T14:57:57.497710+00:00", "meta": {"OBJECT_NAME": "CARTOSAT-2F", "OBJECT_ID": "2018-004A", "EPOCH": "2025-12-14T22:07:24.201696", "MEAN_MOTION": 15.19298943, "ECCENTRICITY": 0.00011078, "INCLINATION": 97.4318, "RA_OF_ASC_NODE": 46.5242, "ARG_OF_PERICENTER": 140.7472, "MEAN_ANOMALY": 219.3843, "EPHEMERIS_TYPE": 0, "CLASSIFICATION_TYPE": "U", "NORAD_CAT_ID": 43111, "ELEMENT_SET_NO": 999, "REV_AT_EPOCH": 43935, "BSTAR": 0.00015836716, "MEAN_MOTION_DOT": 3.274e-05, "MEAN_MOTION_DDOT": 0}, "tle": {"line1": "1 43111U 18004A   25348.92180789  .00003274  00000+0  15837-3 0  9991", "line2": "2 43111  97.4318  46.5242 0001107 140.7472 219.3843 15.19298943439356"}}, "geometry": {"type": "Point", "coordinates": [-143.6933366555558, -55.402200990890904]}}, {"type": "Feature", "properties": {"norad_id": 43259, "name": "GAOFEN-1 02", "group": "resource", "lat": -78.53669041621724, "lon": 91.89023237973046, "alt_km": 647.575983058955, "timestamp": "2025-12-15T14:57:57.497719+00:00", "meta": {"OBJECT_NAME": "GAOFEN-1 02", "OBJECT_ID": "2018-031A", "EPOCH": "2025-12-14T23:04:15.394656", "MEAN_MOTION": 14.76421871, "ECCENTRICITY": 0.00018531, "INCLINATION": 98.0808, "RA_OF_ASC_NODE": 46.7514, "ARG_OF_PERICENTER": 208.1344, "MEAN_ANOMALY": 151.9765, "EPHEMERIS_TYPE": 0, "CLASSIFICATION_TYPE": "U", "NORAD_CAT_ID": 43259, "ELEMENT_SET_NO": 999, "REV_AT_EPOCH": 41551, "BSTAR": 0.00015672523, "MEAN_MOTION_DOT": 1.038e-05, "MEAN_MOTION_DDOT": 0}, "tle": {"line1": "1 43259U 18031A   25348.96128929  .00001038  00000+0  15673-3 0  9990", "line2": "2 43259  98.0808  46.7514 0001853 208.1344 151.9765 14.76421871415515"}}, "geometry": {"type": "Point", "coordinates": [91.89023237973046, -78.53669041621724]}}, {"type": "Feature", "properties": {"norad_id": 43260, "name": "GAOFEN-1 03", "group": "resource", "lat": 33.09715196235192, "lon": 41.97767905035237, "alt_km": 638.4310859450206, "timestamp": "2025-12-15T14:57:57.497728+00:00", "meta": {"OBJECT_NAME": "GAOFEN-1 03", "OBJECT_ID": "2018-031B", "EPOCH": "2025-12-14T22:32:59.152128", "MEAN_MOTION": 14.764418, "ECCENTRICITY": 0.00018722, "INCLINATION": 98.0797, "RA_OF_ASC_NODE": 46.6064, "ARG_OF_PERICENTER": 311.6194, "MEAN_ANOMALY": 48.4855, "EPHEMERIS_TYPE": 0, "CLASSIFICATION_TYPE": "U", "NORAD_CAT_ID": 43260, "ELEMENT_SET_NO": 999, "REV_AT_EPOCH": 41550, "BSTAR": 0.00016750816, "MEAN_MOTION_DOT": 1.113e-05, "MEAN_MOTION_DDOT": 0}, "tle": {"line1": "1 43260U 18031B   25348.93957352  .00001113  00000+0  16751-3 0  9991", "line2": "2 43260  98.0797  46.6064 0001872 311.6194  48.4855 14.76441800415500"}}, "geometry": {"type": "Point", "coordinates": [41.97767905035237, 33.09715196235192]}}]}